{"type":"FeatureCollection","features":[{"type":"Feature","properties":{"lga_code":11300},"geometry":{"type":"Polygon","coordinates":[[[151.0931,-33.8786],[151.089,-33.9],[151.0974,-33.9037],[151.0996,-33.8975],[151.1124,-33.8944],[151.1126,-33.8866],[151.1207,-33.877],[151.1182,-33.8767],[151.1194,-33.871],[151.0957,-33.8671],[151.0931,-33.8786]]]}},{"type":"Feature","properties":{"lga_code":11100},"geometry":{"type":"MultiPolygon","coordinates":[[[[151.1742,-33.925],[151.1658,-33.9385],[151.1703,-33.9422],[151.1814,-33.9397],[151.1858,-33.942],[151.18,-33.954],[151.1757,-33.955],[151.1798,-33.9673],[151.1868,-33.965],[151.1822,-33.9612],[151.1822,-33.9523],[151.1867,-33.9532],[151.1933,-33.974],[151.1956,-33.9727],[151.1923,-33.9542],[151.2088,-33.9644],[151.2111,-33.9618],[151.2123,-33.9638],[151.2056,-33.9648],[151.2078,-33.9699],[151.2209,-33.9684],[151.2212,-33.9591],[151.2303,-33.9556],[151.2314,-33.9499],[151.2268,-33.945],[151.2305,-33.9353],[151.228,-33.925],[151.1808,-33.9192],[151.1742,-33.925]]],[[[151.148,-33.9273],[151.1399,-33.9274],[151.1328,-33.9318],[151.1251,-33.9307],[151.1158,-33.9368],[151.1008,-33.9393],[151.102,-33.9497],[151.1189,-33.9694],[151.1306,-33.9661],[151.1348,-33.9562],[151.138,-33.9598],[151.136,-33.9858],[151.1262,-34.0017],[151.1282,-34.006],[151.1397,-34.0034],[151.1419,-33.9973],[151.1495,-33.9942],[151.1511,-33.9743],[151.1618,-33.9536],[151.168,-33.9498],[151.1757,-33.955],[151.18,-33.954],[151.186,-33.9439],[151.1825,-33.9398],[151.1671,-33.9405],[151.1659,-33.9374],[151.1707,-33.9299],[151.1605,-33.934],[151.156,-33.9316],[151.155,-33.9262],[151.148,-33.9273]]]]}},{"type":"Feature","properties":{"lga_code":14100},"geometry":{"type":"Polygon","coordinates":[[[151.1276,-33.8297],[151.1283,-33.8417],[151.133,-33.8407],[151.1338,-33.8448],[151.1489,-33.8392],[151.1359,-33.8365],[151.1533,-33.8365],[151.1615,-33.8448],[151.1622,-33.842],[151.1743,-33.8431],[151.1736,-33.8388],[151.1803,-33.8364],[151.1693,-33.8393],[151.1621,-33.8376],[151.1618,-33.834],[151.1455,-33.8304],[151.1425,-33.827],[151.147,-33.8254],[151.1469,-33.82],[151.1363,-33.8148],[151.1377,-33.8186],[151.1276,-33.8297]]]}},{"type":"Feature","properties":{"lga_code":12850},"geometry":{"type":"Polygon","coordinates":[[[150.9562,-33.8577],[150.9536,-33.8539],[150.9469,-33.8542],[150.9447,-33.85],[150.9377,-33.8494],[150.9387,-33.8465],[150.9325,-33.8431],[150.9171,-33.8381],[150.9124,-33.8347],[150.9144,-33.8323],[150.9089,-33.8254],[150.8959,-33.8286],[150.889,-33.834],[150.888,-33.8297],[150.8833,-33.8323],[150.8843,-33.8275],[150.8782,-33.829],[150.8737,-33.8247],[150.8572,-33.8208],[150.8277,-33.8207],[150.8129,-33.8224],[150.8116,-33.8251],[150.8208,-33.8267],[150.819,-33.8352],[150.8235,-33.8359],[150.8151,-33.8794],[150.8203,-33.8807],[150.8286,-33.8756],[150.8398,-33.8747],[150.8522,-33.8834],[150.8646,-33.8835],[150.8571,-33.8944],[150.9037,-33.9086],[150.9078,-33.9142],[150.9173,-33.9039],[150.9279,-33.9074],[150.9362,-33.9033],[150.9415,-33.9029],[150.9409,-33.9061],[150.9493,-33.9024],[150.9497,-33.9055],[150.9607,-33.8988],[150.9665,-33.9005],[150.9601,-33.9046],[150.9661,-33.9097],[150.9735,-33.9099],[150.9737,-33.907],[150.9776,-33.909],[150.9793,-33.9057],[150.9684,-33.8965],[150.9671,-33.8901],[150.9733,-33.8894],[150.9905,-33.8641],[150.9825,-33.8572],[150.9614,-33.8699],[150.9616,-33.8634],[150.9562,-33.8577]]]}},{"type":"Feature","properties":{"lga_code":18050},"geometry":{"type":"Polygon","coordinates":[[[151.2819,-33.8913],[151.284,-33.8939],[151.2861,-33.888],[151.2827,-33.8774],[151.2829,-33.862],[151.2863,-33.8576],[151.2827,-33.857],[151.2662,-33.8867],[151.2537,-33.8909],[151.2409,-33.8898],[151.2416,-33.9027],[151.2707,-33.9111],[151.269,-33.9028],[151.2763,-33.899],[151.275,-33.8931],[151.2819,-33.8913]]]}},{"type":"Feature","properties":{"lga_code":10750},"geometry":{"type":"Polygon","coordinates":[[[150.9063,-33.6726],[150.894,-33.6627],[150.8766,-33.6596],[150.8587,-33.6463],[150.8352,-33.658],[150.8272,-33.6573],[150.8189,-33.6612],[150.8131,-33.6693],[150.8186,-33.6764],[150.8102,-33.6785],[150.8007,-33.6745],[150.7955,-33.6846],[150.779,-33.6969],[150.7788,-33.7022],[150.7762,-33.7042],[150.772,-33.7014],[150.7661,-33.7056],[150.7677,-33.7135],[150.7625,-33.721],[150.764,-33.7263],[150.7597,-33.7302],[150.7618,-33.7352],[150.769,-33.7331],[150.7892,-33.7468],[150.7955,-33.7641],[150.802,-33.77],[150.8034,-33.7771],[150.8118,-33.7888],[150.8104,-33.7942],[150.8143,-33.7983],[150.8157,-33.8077],[150.8129,-33.8224],[150.8577,-33.8209],[150.8737,-33.8247],[150.8782,-33.829],[150.8843,-33.8275],[150.8833,-33.8323],[150.888,-33.8297],[150.889,-33.834],[150.8959,-33.8286],[150.9089,-33.8254],[150.9144,-33.8323],[150.9185,-33.8088],[150.9273,-33.8102],[150.93,-33.8055],[150.9343,-33.8061],[150.9352,-33.798],[150.9506,-33.7851],[150.9476,-33.7804],[150.9518,-33.7766],[150.9565,-33.78],[150.9653,-33.7794],[150.9276,-33.697],[150.9063,-33.6726]]]}},{"type":"Feature","properties":{"lga_code":17150},"geometry":{"type":"Polygon","coordinates":[[[151.1333,-34.0808],[151.1322,-34.076],[151.1259,-34.081],[151.1247,-34.076],[151.1208,-34.0786],[151.1177,-34.0766],[151.1155,-34.0794],[151.1102,-34.0783],[151.1075,-34.0831],[151.1001,-34.0838],[151.0993,-34.0896],[151.0898,-34.0868],[151.0868,-34.0896],[151.0786,-34.0893],[151.0982,-34.0859],[151.0981,-34.0826],[151.1056,-34.0794],[151.1034,-34.0749],[151.1062,-34.0718],[151.1011,-34.0694],[151.102,-34.0654],[151.0981,-34.0651],[151.1004,-34.0633],[151.096,-34.058],[151.0884,-34.0696],[151.078,-34.0633],[151.063,-34.0646],[151.0595,-34.068],[151.0618,-34.0707],[151.0568,-34.073],[151.0608,-34.0707],[151.0589,-34.0683],[151.0615,-34.064],[151.0823,-34.0605],[151.0893,-34.0653],[151.0857,-34.0638],[151.0903,-34.0613],[151.0891,-34.0582],[151.077,-34.0539],[151.0836,-34.0559],[151.0858,-34.0539],[151.0922,-34.0577],[151.0951,-34.0521],[151.0919,-34.0491],[151.0977,-34.049],[151.0968,-34.0471],[151.1013,-34.0516],[151.0987,-34.0559],[151.102,-34.0589],[151.1086,-34.0468],[151.1052,-34.0421],[151.1093,-34.0447],[151.1121,-34.0432],[151.109,-34.0507],[151.1116,-34.053],[151.106,-34.0594],[151.1109,-34.0619],[151.1144,-34.0594],[151.116,-34.0658],[151.1122,-34.0662],[151.1116,-34.0725],[151.1188,-34.0708],[151.1193,-34.0678],[151.1219,-34.0705],[151.1297,-34.0693],[151.1263,-34.064],[151.1279,-34.0614],[151.1321,-34.0636],[151.1339,-34.0555],[151.1383,-34.0562],[151.1344,-34.0719],[151.1403,-34.0738],[151.1392,-34.0647],[151.1423,-34.0574],[151.1489,-34.0546],[151.1474,-34.0734],[151.1548,-34.0727],[151.1584,-34.0669],[151.1555,-34.0642],[151.1584,-34.0584],[151.1551,-34.0557],[151.1559,-34.0519],[151.1674,-34.0397],[151.1859,-34.0346],[151.1941,-34.0366],[151.1988,-34.0417],[151.2011,-34.0379],[151.2145,-34.0419],[151.2212,-34.0389],[151.2303,-34.0264],[151.2319,-34.0162],[151.2284,-34.0043],[151.2219,-34.0012],[151.2113,-34.0079],[151.1869,-34.0075],[151.1989,-34.0102],[151.1986,-34.0145],[151.2063,-34.0146],[151.1963,-34.0212],[151.1858,-34.0196],[151.1792,-34.0261],[151.1721,-34.0195],[151.169,-34.0235],[151.1596,-34.0233],[151.1556,-34.0163],[151.1583,-34.0145],[151.1681,-34.013],[151.1703,-34.0158],[151.1786,-34.0128],[151.1724,-34.0115],[151.1735,-34.0071],[151.162,-34.0001],[151.1559,-34.0064],[151.1655,-34.003],[151.1574,-34.0132],[151.1493,-34.0161],[151.1491,-34.0136],[151.1418,-34.0145],[151.1612,-34.0282],[151.1595,-34.0326],[151.1528,-34.0341],[151.1529,-34.0378],[151.1477,-34.0388],[151.1375,-34.037],[151.1337,-34.0331],[151.1316,-34.0261],[151.1339,-34.0229],[151.1254,-34.0166],[151.127,-34.0099],[151.1202,-34.0158],[151.1141,-34.0165],[151.1155,-34.0218],[151.1129,-34.0202],[151.1104,-34.0237],[151.112,-34.0198],[151.1097,-34.0181],[151.1128,-34.0166],[151.1095,-34.0179],[151.1079,-34.0144],[151.1174,-34.0137],[151.1137,-34.0033],[151.1099,-34.0066],[151.0979,-34.0059],[151.0982,-33.9979],[151.0944,-33.9978],[151.0956,-34.0035],[151.0905,-34.0119],[151.0825,-34.0093],[151.0777,-34.0126],[151.0823,-34.0079],[151.0875,-34.008],[151.084,-34.0053],[151.0856,-34.0029],[151.0889,-34.0056],[151.0918,-34.0014],[151.089,-33.9972],[151.0828,-33.996],[151.0788,-33.9967],[151.0799,-34.0006],[151.0756,-33.9977],[151.07,-34.0023],[151.0689,-33.996],[151.056,-34.0004],[151.0587,-34.0082],[151.0525,-34.005],[151.0497,-34.0083],[151.0468,-34.007],[151.0514,-34.0168],[151.0492,-34.015],[151.0501,-34.0215],[151.0429,-34.0292],[151.0489,-34.0207],[151.043,-34.0077],[151.0531,-34.0023],[151.0551,-33.9985],[151.053,-34.0019],[151.0511,-34.0],[151.0579,-33.9944],[151.0654,-33.9946],[151.0656,-33.9912],[151.0606,-33.9884],[151.0521,-33.9946],[151.0352,-33.9934],[151.0292,-33.987],[151.0304,-33.9838],[151.0377,-33.9818],[151.0346,-33.9775],[151.022,-33.9772],[151.0121,-33.9836],[151.0037,-33.9794],[150.9992,-33.9829],[150.9941,-33.979],[150.9981,-33.9751],[150.9933,-33.9719],[150.9884,-33.977],[150.9922,-33.98],[150.9912,-33.993],[150.9875,-33.9926],[150.9844,-33.9987],[150.9806,-34.0171],[150.9684,-34.0258],[150.9517,-34.0235],[150.9481,-34.0411],[150.9408,-34.04],[150.9357,-34.05],[150.9373,-34.0751],[150.9335,-34.0779],[150.9323,-34.0846],[150.9233,-34.0898],[150.9253,-34.0934],[150.9366,-34.0951],[150.9336,-34.1094],[150.9251,-34.1165],[150.9293,-34.1242],[150.9223,-34.1291],[150.9799,-34.1384],[150.9911,-34.146],[151.0221,-34.1557],[151.0158,-34.1595],[151.0159,-34.1664],[151.0545,-34.1715],[151.0552,-34.1677],[151.0662,-34.1723],[151.0811,-34.1668],[151.0984,-34.1537],[151.1114,-34.148],[151.1101,-34.1455],[151.1221,-34.1396],[151.1187,-34.137],[151.1279,-34.1379],[151.1292,-34.1307],[151.1374,-34.1233],[151.1358,-34.1203],[151.1412,-34.1163],[151.1518,-34.1151],[151.1518,-34.1097],[151.1718,-34.0865],[151.169,-34.0749],[151.1647,-34.0812],[151.1562,-34.0802],[151.15,-34.0837],[151.1452,-34.0799],[151.137,-34.0817],[151.1331,-34.0735],[151.1325,-34.083],[151.1352,-34.0823],[151.131,-34.0844],[151.1296,-34.0896],[151.1216,-34.0925],[151.1333,-34.0808]]]}},{"type":"Feature","properties":{"lga_code":16350},"geometry":{"type":"Polygon","coordinates":[[[150.7818,-33.7405],[150.769,-33.7331],[150.7618,-33.7352],[150.7597,-33.7296],[150.764,-33.7263],[150.7625,-33.721],[150.7677,-33.7136],[150.766,-33.7056],[150.772,-33.7014],[150.7762,-33.7042],[150.7788,-33.7022],[150.779,-33.6969],[150.7955,-33.6846],[150.8005,-33.6746],[150.8124,-33.6776],[150.7964,-33.6602],[150.7821,-33.6375],[150.6995,-33.6123],[150.6944,-33.6201],[150.6852,-33.622],[150.6794,-33.6274],[150.6664,-33.6536],[150.6671,-33.6664],[150.6589,-33.6731],[150.6582,-33.713],[150.6558,-33.7169],[150.6497,-33.716],[150.6484,-33.7219],[150.6441,-33.7212],[150.6425,-33.7301],[150.647,-33.7308],[150.6406,-33.748],[150.6449,-33.7518],[150.6417,-33.7576],[150.6428,-33.7751],[150.6396,-33.7792],[150.643,-33.7798],[150.6197,-33.8141],[150.5928,-33.8325],[150.588,-33.8449],[150.5919,-33.8546],[150.6104,-33.8574],[150.6128,-33.8618],[150.6174,-33.8623],[150.6287,-33.8619],[150.6355,-33.856],[150.6393,-33.8763],[150.6923,-33.8832],[150.6894,-33.8796],[150.6905,-33.8723],[150.6983,-33.864],[150.7934,-33.8807],[150.8151,-33.8794],[150.8235,-33.8359],[150.819,-33.8352],[150.8208,-33.8267],[150.8116,-33.8251],[150.8158,-33.817],[150.8134,-33.8127],[150.8157,-33.8077],[150.8143,-33.7983],[150.8104,-33.7942],[150.8101,-33.7839],[150.7955,-33.7641],[150.7892,-33.7468],[150.7818,-33.7405]]]}},{"type":"Feature","properties":{"lga_code":16550},"geometry":{"type":"MultiPolygon","coordinates":[[[[151.2486,-33.9034],[151.2416,-33.9027],[151.242,-33.8902],[151.2335,-33.8896],[151.2225,-33.9013],[151.2233,-33.9046],[151.2143,-33.9038],[151.2114,-33.9215],[151.2143,-33.9243],[151.2282,-33.9251],[151.2305,-33.9353],[151.2268,-33.9452],[151.2317,-33.952],[151.2303,-33.9556],[151.2212,-33.9591],[151.2209,-33.969],[151.2115,-33.972],[151.2089,-33.9821],[151.2127,-33.9848],[151.2191,-33.9779],[151.226,-33.9767],[151.2311,-33.9852],[151.2286,-33.9889],[151.2308,-33.9926],[151.2355,-33.9894],[151.2383,-33.9916],[151.2376,-33.9984],[151.2424,-34.0001],[151.2458,-33.9976],[151.2492,-34.0018],[151.2541,-33.9833],[151.2512,-33.9789],[151.259,-33.9758],[151.2519,-33.9647],[151.266,-33.968],[151.263,-33.9612],[151.2657,-33.9588],[151.257,-33.9519],[151.2586,-33.9457],[151.2657,-33.9414],[151.2595,-33.9373],[151.2614,-33.9275],[151.2577,-33.922],[151.2629,-33.9177],[151.2614,-33.9149],[151.267,-33.9163],[151.2667,-33.9137],[151.2716,-33.9132],[151.2486,-33.9034]]],[[[151.2656,-33.9263],[151.2661,-33.9254],[151.2652,-33.9256],[151.2656,-33.9263]]]]}},{"type":"Feature","properties":{"lga_code":18250},"geometry":{"type":"Polygon","coordinates":[[[151.1534,-33.8004],[151.1426,-33.8018],[151.172,-33.8077],[151.1793,-33.8055],[151.1756,-33.8127],[151.1903,-33.8248],[151.2141,-33.8158],[151.2208,-33.8179],[151.2244,-33.8164],[151.2235,-33.814],[151.2321,-33.8137],[151.2306,-33.8055],[151.2173,-33.8054],[151.2227,-33.8048],[151.224,-33.8012],[151.2305,-33.8024],[151.2308,-33.7955],[151.2177,-33.7973],[151.2228,-33.7942],[151.2147,-33.7901],[151.2253,-33.7933],[151.233,-33.7897],[151.2301,-33.7851],[151.2134,-33.7843],[151.2115,-33.7787],[151.2081,-33.7785],[151.1715,-33.7911],[151.1568,-33.7921],[151.1589,-33.7993],[151.1534,-33.8004]]]}},{"type":"Feature","properties":{"lga_code":11450},"geometry":{"type":"Polygon","coordinates":[[[150.6664,-34.0374],[150.6568,-34.0624],[150.662,-34.0671],[150.6538,-34.0716],[150.6489,-34.082],[150.6528,-34.0843],[150.7094,-34.0934],[150.7148,-34.0897],[150.7158,-34.0849],[150.7066,-34.0776],[150.7361,-34.077],[150.7421,-34.0807],[150.7664,-34.0781],[150.7823,-34.059],[150.781,-34.0541],[150.7866,-34.0463],[150.784,-34.0427],[150.7909,-34.0334],[150.7893,-34.0236],[150.7918,-34.0201],[150.7877,-34.0154],[150.7959,-34.0118],[150.7945,-34.0065],[150.8226,-33.952],[150.7518,-33.9413],[150.708,-33.9388],[150.7013,-33.9403],[150.7002,-33.9467],[150.6639,-33.9472],[150.6507,-33.9595],[150.6444,-33.9577],[150.6438,-33.9598],[150.6381,-33.9562],[150.6361,-33.9582],[150.6356,-33.9549],[150.6313,-33.9538],[150.6286,-33.9725],[150.6421,-33.9775],[150.6509,-33.9853],[150.6704,-33.9869],[150.6698,-33.9915],[150.6499,-34.0084],[150.652,-34.0168],[150.6606,-34.0271],[150.6718,-34.0283],[150.6664,-34.0374]]]}},{"type":"Feature","properties":{"lga_code":18500},"geometry":{"type":"MultiPolygon","coordinates":[[[[151.2719,-33.8761],[151.2773,-33.8686],[151.2783,-33.861],[151.2863,-33.8576],[151.2878,-33.8502],[151.2807,-33.8327],[151.2764,-33.8407],[151.2817,-33.8436],[151.2776,-33.8511],[151.2746,-33.8486],[151.2728,-33.8527],[151.27,-33.8474],[151.2644,-33.8509],[151.2706,-33.8659],[151.2676,-33.8702],[151.2563,-33.8715],[151.2534,-33.8691],[151.2567,-33.8643],[151.2515,-33.8638],[151.2485,-33.8663],[151.2495,-33.8706],[151.243,-33.8738],[151.2406,-33.8666],[151.237,-33.8671],[151.2278,-33.8791],[151.2192,-33.8816],[151.2367,-33.8906],[151.2537,-33.8909],[151.2662,-33.8867],[151.2719,-33.8761]]],[[[151.2586,-33.8597],[151.2578,-33.8576],[151.2571,-33.8576],[151.2586,-33.8597]]],[[[151.2816,-33.8332],[151.2816,-33.8325],[151.2812,-33.8328],[151.2816,-33.8332]]],[[[151.2705,-33.8479],[151.271,-33.8472],[151.2705,-33.8475],[151.2705,-33.8479]]]]}},{"type":"Feature","properties":{"lga_code":17100},"geometry":{"type":"Polygon","coordinates":[[[151.0643,-33.8706],[151.0664,-33.8737],[151.0641,-33.8802],[151.0551,-33.8886],[151.0589,-33.8904],[151.0682,-33.8858],[151.0641,-33.9049],[151.0686,-33.9056],[151.0643,-33.9078],[151.0755,-33.9096],[151.0896,-33.8998],[151.0945,-33.8719],[151.0855,-33.8612],[151.0814,-33.85],[151.0692,-33.8583],[151.064,-33.8562],[151.0604,-33.8612],[151.0639,-33.8638],[151.0567,-33.8646],[151.0643,-33.8706]]]}},{"type":"Feature","properties":{"lga_code":14700},"geometry":{"type":"Polygon","coordinates":[[[151.1452,-33.8159],[151.1496,-33.8246],[151.1458,-33.829],[151.1522,-33.8285],[151.152,-33.8218],[151.1557,-33.8297],[151.166,-33.8274],[151.161,-33.8314],[151.169,-33.8361],[151.1736,-33.8335],[151.1705,-33.8309],[151.1731,-33.8282],[151.1794,-33.8327],[151.1816,-33.8295],[151.1844,-33.8361],[151.1794,-33.8404],[151.1869,-33.8434],[151.185,-33.8388],[151.1892,-33.8312],[151.1983,-33.8251],[151.1882,-33.8245],[151.1786,-33.8163],[151.1755,-33.812],[151.1793,-33.8055],[151.172,-33.8077],[151.1442,-33.803],[151.1423,-33.8083],[151.1452,-33.8159]]]}},{"type":"Feature","properties":{"lga_code":15350},"geometry":{"type":"Polygon","coordinates":[[[151.2313,-33.8259],[151.2284,-33.8376],[151.2328,-33.8364],[151.2334,-33.8443],[151.2374,-33.8396],[151.2369,-33.8449],[151.2438,-33.8468],[151.2462,-33.8536],[151.2462,-33.8427],[151.2543,-33.844],[151.253,-33.8392],[151.2612,-33.838],[151.2607,-33.83],[151.2689,-33.8273],[151.2663,-33.8236],[151.2524,-33.8271],[151.2531,-33.8169],[151.2472,-33.8126],[151.2487,-33.8079],[151.2459,-33.8033],[151.2442,-33.8098],[151.2378,-33.8081],[151.2351,-33.8116],[151.2391,-33.8169],[151.2311,-33.8167],[151.2313,-33.8259]]]}},{"type":"Feature","properties":{"lga_code":14900},"geometry":{"type":"Polygon","coordinates":[[[150.9552,-33.9015],[150.9497,-33.9055],[150.9492,-33.9024],[150.9406,-33.9061],[150.9412,-33.9029],[150.9279,-33.9074],[150.9173,-33.9039],[150.9078,-33.9142],[150.9037,-33.9086],[150.8571,-33.8944],[150.8646,-33.8835],[150.8522,-33.8834],[150.8398,-33.8747],[150.8286,-33.8756],[150.8203,-33.8807],[150.7954,-33.8809],[150.6983,-33.864],[150.6905,-33.8723],[150.6894,-33.8797],[150.6925,-33.8832],[150.6395,-33.8763],[150.6346,-33.8868],[150.6345,-33.9022],[150.6385,-33.9092],[150.6485,-33.9137],[150.6489,-33.9171],[150.6392,-33.9297],[150.6183,-33.9267],[150.6177,-33.9296],[150.6248,-33.9314],[150.6271,-33.9354],[150.618,-33.9546],[150.6232,-33.9602],[150.6326,-33.9534],[150.6361,-33.9582],[150.6381,-33.9562],[150.65,-33.9595],[150.6639,-33.9472],[150.7002,-33.9467],[150.7013,-33.9403],[150.7076,-33.9389],[150.7518,-33.9413],[150.8226,-33.952],[150.8151,-33.9679],[150.8212,-33.9762],[150.8284,-33.9735],[150.8445,-33.9845],[150.8518,-33.9764],[150.8691,-33.9698],[150.8868,-33.9582],[150.8993,-33.9619],[150.9007,-33.9654],[150.9132,-33.9648],[150.9078,-33.9904],[150.909,-33.9978],[150.9126,-34.0003],[150.9015,-34.0072],[150.9069,-34.0175],[150.8993,-34.0208],[150.8929,-34.0195],[150.8923,-34.0056],[150.8892,-34.0046],[150.8867,-34.0321],[150.9481,-34.0411],[150.9517,-34.0235],[150.9684,-34.0258],[150.9806,-34.0171],[150.9844,-33.9987],[150.9875,-33.9926],[150.9912,-33.993],[150.9922,-33.98],[150.9884,-33.977],[150.994,-33.9717],[150.9889,-33.9659],[150.9812,-33.9649],[150.9828,-33.9557],[150.9738,-33.9521],[150.9662,-33.9436],[150.9687,-33.9309],[150.979,-33.9292],[150.9739,-33.9185],[150.9741,-33.9103],[150.9681,-33.9108],[150.9604,-33.9052],[150.9669,-33.9024],[150.9651,-33.8994],[150.9552,-33.9015]]]}},{"type":"Feature","properties":{"lga_code":16700},"geometry":{"type":"Polygon","coordinates":[[[151.119,-33.8334],[151.1199,-33.838],[151.1254,-33.8418],[151.1263,-33.8385],[151.1283,-33.8417],[151.1267,-33.8302],[151.1376,-33.8187],[151.1359,-33.8151],[151.1438,-33.8166],[151.1391,-33.8094],[151.1418,-33.8098],[151.1426,-33.8016],[151.1591,-33.7987],[151.1564,-33.7913],[151.1525,-33.7904],[151.1483,-33.7942],[151.1489,-33.7875],[151.1428,-33.7811],[151.1397,-33.7823],[151.1392,-33.7747],[151.1257,-33.7725],[151.1199,-33.7685],[151.1168,-33.7613],[151.1054,-33.7612],[151.0968,-33.7658],[151.0937,-33.7787],[151.0824,-33.7888],[151.0766,-33.7874],[151.0657,-33.7909],[151.0661,-33.8027],[151.0702,-33.8062],[151.0732,-33.8188],[151.0928,-33.8196],[151.0999,-33.8246],[151.1015,-33.8309],[151.1081,-33.8311],[151.1087,-33.8356],[151.1119,-33.8345],[151.1114,-33.8296],[151.1162,-33.8338],[151.1153,-33.8371],[151.119,-33.8334]]]}},{"type":"Feature","properties":{"lga_code":11520},"geometry":{"type":"Polygon","coordinates":[[[151.083,-33.8546],[151.0945,-33.8719],[151.0957,-33.8671],[151.1276,-33.8743],[151.1372,-33.873],[151.1496,-33.8661],[151.1452,-33.8626],[151.1662,-33.8549],[151.1533,-33.845],[151.154,-33.8421],[151.1444,-33.8435],[151.1495,-33.8469],[151.1423,-33.8534],[151.1421,-33.8459],[151.1331,-33.8495],[151.1277,-33.8438],[151.1222,-33.8489],[151.1258,-33.8507],[151.1283,-33.8611],[151.1188,-33.8646],[151.1159,-33.8608],[151.1218,-33.8574],[151.1138,-33.854],[151.1197,-33.8529],[151.1151,-33.8497],[151.1208,-33.8418],[151.1142,-33.8435],[151.1117,-33.8378],[151.1074,-33.8385],[151.1041,-33.8344],[151.1047,-33.8408],[151.0998,-33.8443],[151.1025,-33.8384],[151.0937,-33.84],[151.0993,-33.8323],[151.0968,-33.8308],[151.0913,-33.8347],[151.0896,-33.8305],[151.0944,-33.8255],[151.0895,-33.8228],[151.0832,-33.8279],[151.0838,-33.8346],[151.078,-33.8461],[151.083,-33.8546]]]}},{"type":"Feature","properties":{"lga_code":17200},"geometry":{"type":"MultiPolygon","coordinates":[[[[151.2239,-33.8652],[151.2199,-33.8687],[151.2227,-33.8592],[151.2179,-33.8632],[151.2146,-33.8561],[151.2097,-33.861],[151.2106,-33.8554],[151.2066,-33.8537],[151.2054,-33.8564],[151.2002,-33.8554],[151.2015,-33.8732],[151.199,-33.8656],[151.1961,-33.8675],[151.1977,-33.8635],[151.1944,-33.8654],[151.1961,-33.8626],[151.1936,-33.8644],[151.1941,-33.8624],[151.186,-33.8684],[151.1923,-33.8739],[151.1893,-33.8758],[151.1848,-33.8709],[151.1748,-33.8727],[151.1753,-33.883],[151.1812,-33.8957],[151.1778,-33.899],[151.1816,-33.907],[151.1783,-33.9195],[151.2143,-33.9243],[151.2112,-33.9204],[151.2143,-33.9038],[151.2233,-33.9046],[151.2225,-33.9013],[151.2337,-33.8896],[151.2192,-33.8816],[151.2278,-33.8791],[151.2318,-33.8713],[151.2276,-33.8689],[151.2299,-33.8583],[151.2239,-33.8652]]],[[[151.1949,-33.8533],[151.1967,-33.8537],[151.1989,-33.8509],[151.1949,-33.8533]]],[[[151.2254,-33.8553],[151.2261,-33.8547],[151.2252,-33.8549],[151.2254,-33.8553]]]]}},{"type":"Feature","properties":{"lga_code":14000},"geometry":{"type":"MultiPolygon","coordinates":[[[[151.116,-33.5108],[151.1118,-33.5089],[151.1131,-33.5055],[151.1302,-33.5051],[151.1213,-33.5106],[151.1255,-33.5178],[151.1335,-33.5133],[151.1408,-33.5244],[151.1504,-33.5208],[151.1542,-33.5236],[151.1525,-33.5088],[151.1553,-33.499],[151.1313,-33.4913],[151.1345,-33.4881],[151.1438,-33.4905],[151.1546,-33.4653],[151.1463,-33.473],[151.1388,-33.4754],[151.1224,-33.4666],[151.1235,-33.4694],[151.1158,-33.4714],[151.1033,-33.4841],[151.09,-33.4806],[151.0846,-33.4737],[151.0798,-33.4488],[151.0766,-33.4495],[151.0776,-33.4602],[151.0719,-33.463],[151.0642,-33.4549],[151.0632,-33.4425],[151.0517,-33.4407],[151.0441,-33.4297],[151.0323,-33.4273],[151.0319,-33.4054],[151.0212,-33.4006],[150.9948,-33.3994],[150.9924,-33.384],[150.9876,-33.3803],[150.984,-33.3879],[150.9864,-33.3911],[150.9856,-33.4019],[150.9721,-33.4217],[150.9903,-33.4286],[150.9928,-33.4458],[151.0014,-33.4539],[151.0051,-33.4661],[151.0104,-33.4722],[151.0102,-33.4835],[151.0159,-33.4905],[151.0212,-33.4922],[151.0229,-33.506],[151.0291,-33.517],[151.0243,-33.5237],[151.0111,-33.532],[151.0136,-33.5384],[151.0101,-33.5443],[151.0133,-33.5489],[151.0088,-33.5547],[151.0117,-33.5626],[151.008,-33.5692],[151.0145,-33.5728],[151.0113,-33.5819],[151.0129,-33.5859],[151.0063,-33.5976],[151.0192,-33.6099],[151.0238,-33.6213],[151.0198,-33.6518],[151.0262,-33.6639],[151.0276,-33.6873],[151.0324,-33.6923],[151.0302,-33.696],[151.0189,-33.694],[151.0112,-33.7101],[151.019,-33.717],[151.0168,-33.7307],[151.0269,-33.7328],[151.0327,-33.7381],[151.0469,-33.7434],[151.0498,-33.748],[151.049,-33.7588],[151.0616,-33.7572],[151.0707,-33.7618],[151.0973,-33.7657],[151.1044,-33.7627],[151.1053,-33.7575],[151.1006,-33.7548],[151.0986,-33.7485],[151.0908,-33.7446],[151.0901,-33.7353],[151.0937,-33.7295],[151.1066,-33.7276],[151.1083,-33.7183],[151.1162,-33.7104],[151.1237,-33.689],[151.1288,-33.6897],[151.1378,-33.6844],[151.138,-33.6781],[151.1469,-33.6747],[151.1488,-33.6698],[151.1554,-33.667],[151.1543,-33.6637],[151.1588,-33.6623],[151.1617,-33.6577],[151.1589,-33.6524],[151.1494,-33.6555],[151.163,-33.6465],[151.1592,-33.6453],[151.1623,-33.642],[151.1585,-33.6411],[151.1704,-33.6291],[151.1639,-33.6259],[151.1753,-33.6229],[151.1756,-33.6202],[151.1804,-33.6224],[151.1872,-33.6179],[151.1943,-33.6187],[151.1987,-33.6149],[151.1949,-33.6122],[151.2132,-33.6078],[151.2131,-33.6017],[151.2079,-33.5997],[151.2139,-33.5969],[151.2093,-33.5941],[151.2044,-33.5929],[151.2014,-33.5963],[151.2017,-33.5921],[151.1863,-33.5921],[151.1918,-33.5917],[151.1923,-33.5891],[151.2328,-33.594],[151.2333,-33.5901],[151.2471,-33.579],[151.2403,-33.5726],[151.242,-33.5699],[151.231,-33.5614],[151.2256,-33.5674],[151.2241,-33.575],[151.2129,-33.5727],[151.2141,-33.5692],[151.2112,-33.5672],[151.222,-33.5694],[151.2187,-33.5649],[151.2256,-33.559],[151.2231,-33.5557],[151.2284,-33.5544],[151.2303,-33.5478],[151.2331,-33.5475],[151.2273,-33.5465],[151.231,-33.5385],[151.2022,-33.5441],[151.229,-33.5415],[151.2259,-33.547],[151.2192,-33.5455],[151.1985,-33.55],[151.1999,-33.5418],[151.1861,-33.5368],[151.1851,-33.5293],[151.1801,-33.5264],[151.1755,-33.514],[151.1725,-33.5242],[151.1642,-33.5291],[151.1654,-33.5355],[151.1701,-33.5386],[151.1605,-33.5342],[151.1489,-33.5368],[151.1486,-33.5398],[151.1653,-33.5517],[151.1696,-33.5585],[151.1618,-33.5518],[151.1518,-33.5514],[151.1521,-33.5577],[151.1598,-33.5621],[151.1551,-33.5648],[151.1592,-33.5682],[151.1554,-33.5702],[151.1622,-33.5758],[151.1502,-33.5686],[151.1409,-33.5731],[151.1337,-33.571],[151.1361,-33.5809],[151.1462,-33.5828],[151.1443,-33.5871],[151.1433,-33.5838],[151.1348,-33.5842],[151.1326,-33.5814],[151.1261,-33.5848],[151.1266,-33.5887],[151.1234,-33.5858],[151.1186,-33.5904],[151.1245,-33.5949],[151.1257,-33.6003],[151.1208,-33.5995],[151.1227,-33.5965],[151.117,-33.5926],[151.1161,-33.5875],[151.1097,-33.5901],[151.1086,-33.5876],[151.1028,-33.5878],[151.1201,-33.586],[151.1315,-33.5784],[151.1285,-33.5719],[151.131,-33.5679],[151.1443,-33.5677],[151.1422,-33.5647],[151.1476,-33.5656],[151.1515,-33.562],[151.1465,-33.5579],[151.1484,-33.548],[151.1449,-33.5421],[151.1388,-33.5505],[151.1324,-33.5502],[151.1376,-33.5464],[151.1283,-33.5416],[151.117,-33.5462],[151.1271,-33.5376],[151.1376,-33.542],[151.1434,-33.5299],[151.1375,-33.5279],[151.1358,-33.5223],[151.1264,-33.5311],[151.1314,-33.5194],[151.1217,-33.5215],[151.1199,-33.5138],[151.116,-33.5108]]],[[[151.1796,-33.5181],[151.1833,-33.5184],[151.1773,-33.5073],[151.1796,-33.5181]]],[[[151.2404,-33.5371],[151.2366,-33.5371],[151.2353,-33.5416],[151.2429,-33.54],[151.244,-33.5373],[151.2404,-33.5371]]],[[[151.152,-33.5279],[151.1536,-33.5282],[151.1533,-33.5252],[151.152,-33.5279]]]]}},{"type":"Feature","properties":{"lga_code":17420},"geometry":{"type":"Polygon","coordinates":[[[151.004,-33.4626],[151.0014,-33.4539],[150.9928,-33.4458],[150.9902,-33.4285],[150.972,-33.4214],[150.9856,-33.4019],[150.9864,-33.3911],[150.984,-33.3879],[150.9888,-33.3823],[150.987,-33.3781],[150.9838,-33.3785],[150.9767,-33.4002],[150.9611,-33.4123],[150.9517,-33.4138],[150.9516,-33.4275],[150.9437,-33.4249],[150.9398,-33.4139],[150.9343,-33.4165],[150.9277,-33.432],[150.9215,-33.4291],[150.9245,-33.4183],[150.9036,-33.4195],[150.898,-33.4232],[150.8933,-33.4303],[150.8982,-33.4359],[150.8874,-33.4372],[150.8854,-33.4463],[150.8755,-33.4527],[150.8846,-33.4565],[150.8983,-33.4517],[150.9048,-33.472],[150.8961,-33.4747],[150.8766,-33.4708],[150.8709,-33.475],[150.879,-33.4866],[150.8787,-33.4901],[150.8697,-33.4977],[150.8717,-33.5012],[150.8935,-33.4847],[150.9103,-33.5],[150.9254,-33.502],[150.9277,-33.5049],[150.9193,-33.5168],[150.9127,-33.5165],[150.9053,-33.5106],[150.8985,-33.5124],[150.9078,-33.5226],[150.9005,-33.5269],[150.8894,-33.5406],[150.8931,-33.5486],[150.8891,-33.5553],[150.8897,-33.5616],[150.8937,-33.561],[150.8961,-33.5554],[150.9038,-33.5545],[150.909,-33.5577],[150.9166,-33.5546],[150.9218,-33.5611],[150.9325,-33.5595],[150.9357,-33.5648],[150.874,-33.6567],[150.8771,-33.6598],[150.8947,-33.663],[150.9118,-33.6758],[150.9276,-33.697],[150.9589,-33.7683],[150.9717,-33.7744],[151.019,-33.7628],[151.0303,-33.7645],[151.0349,-33.7609],[151.0489,-33.7586],[151.0498,-33.748],[151.0469,-33.7434],[151.0327,-33.7381],[151.0269,-33.7328],[151.0168,-33.7307],[151.019,-33.717],[151.0112,-33.7101],[151.0189,-33.694],[151.0302,-33.696],[151.0324,-33.6923],[151.0276,-33.6873],[151.0262,-33.6639],[151.0198,-33.6518],[151.0238,-33.6213],[151.0192,-33.6099],[151.0063,-33.5976],[151.0129,-33.5859],[151.0113,-33.5819],[151.0145,-33.5728],[151.008,-33.5692],[151.0117,-33.5626],[151.0088,-33.5547],[151.0133,-33.5489],[151.0101,-33.5443],[151.0136,-33.5384],[151.0111,-33.532],[151.0243,-33.5237],[151.0291,-33.517],[151.0229,-33.506],[151.0214,-33.4924],[151.0102,-33.4835],[151.0105,-33.4724],[151.004,-33.4626]]]}},{"type":"Feature","properties":{"lga_code":11500},"geometry":{"type":"Polygon","coordinates":[[[150.8409,-34.1765],[150.8518,-34.1788],[150.8486,-34.1817],[150.8542,-34.1846],[150.8556,-34.1776],[150.8627,-34.1827],[150.8701,-34.1818],[150.8742,-34.1875],[150.8994,-34.1896],[150.904,-34.1846],[150.9068,-34.1648],[150.9161,-34.1541],[150.9225,-34.1279],[150.9293,-34.1242],[150.9251,-34.1165],[150.9336,-34.1094],[150.9366,-34.0951],[150.9253,-34.0934],[150.9233,-34.0898],[150.9323,-34.0846],[150.9335,-34.0779],[150.9372,-34.0754],[150.9375,-34.0647],[150.9343,-34.0586],[150.9408,-34.04],[150.9066,-34.0335],[150.8953,-34.0353],[150.8862,-34.03],[150.8892,-34.0046],[150.8923,-34.0056],[150.8929,-34.0195],[150.8993,-34.0208],[150.9069,-34.0175],[150.9015,-34.0072],[150.9126,-34.0003],[150.909,-33.9978],[150.9078,-33.9904],[150.9132,-33.9648],[150.9007,-33.9654],[150.8993,-33.9619],[150.8868,-33.9582],[150.8691,-33.9698],[150.8518,-33.9764],[150.8445,-33.9845],[150.8284,-33.9735],[150.8212,-33.9762],[150.8151,-33.9679],[150.7945,-34.0065],[150.7959,-34.0118],[150.7877,-34.0154],[150.7918,-34.0201],[150.7893,-34.0236],[150.7909,-34.0334],[150.784,-34.0427],[150.7866,-34.0463],[150.781,-34.0541],[150.7823,-34.059],[150.7664,-34.0781],[150.7421,-34.0807],[150.741,-34.0833],[150.7377,-34.1146],[150.7409,-34.1186],[150.7526,-34.1172],[150.7567,-34.1219],[150.7499,-34.1316],[150.7549,-34.1356],[150.7562,-34.1413],[150.7496,-34.1512],[150.7548,-34.1608],[150.7521,-34.1639],[150.8409,-34.1765]]]}},{"type":"Feature","properties":{"lga_code":15950},"geometry":{"type":"Polygon","coordinates":[[[151.2276,-33.8195],[151.2247,-33.8222],[151.2258,-33.8186],[151.2141,-33.8158],[151.2021,-33.8222],[151.1948,-33.8221],[151.1983,-33.8251],[151.1892,-33.8312],[151.1874,-33.8398],[151.1945,-33.8386],[151.1932,-33.8477],[151.1982,-33.8472],[151.1947,-33.8445],[151.199,-33.8412],[151.2037,-33.8506],[151.2082,-33.8442],[151.2119,-33.8508],[151.2188,-33.8527],[151.2204,-33.8492],[151.2152,-33.8451],[151.2186,-33.845],[151.2152,-33.8411],[151.2247,-33.8466],[151.2249,-33.8393],[151.233,-33.8487],[151.2284,-33.8376],[151.2329,-33.8183],[151.2276,-33.8195]]]}},{"type":"Feature","properties":{"lga_code":12380},"geometry":{"type":"Polygon","coordinates":[[[151.0301,-33.8878],[151.0495,-33.8871],[151.0615,-33.883],[151.0664,-33.8737],[151.0567,-33.8646],[151.0639,-33.8638],[151.0604,-33.8612],[151.064,-33.8562],[151.0301,-33.8352],[151.0192,-33.8373],[151.0048,-33.8276],[150.9879,-33.8248],[150.9897,-33.819],[150.9936,-33.8185],[150.9909,-33.8097],[150.9572,-33.8021],[150.953,-33.7971],[150.9506,-33.7851],[150.938,-33.794],[150.9343,-33.8061],[150.93,-33.8055],[150.9273,-33.8102],[150.9185,-33.8088],[150.916,-33.8303],[150.9124,-33.8347],[150.9381,-33.846],[150.9377,-33.8494],[150.9447,-33.85],[150.9469,-33.8541],[150.9537,-33.854],[150.9616,-33.8634],[150.9606,-33.8694],[150.9825,-33.8572],[150.9947,-33.8684],[151.0301,-33.8878]]]}},{"type":"Feature","properties":{"lga_code":15990},"geometry":{"type":"MultiPolygon","coordinates":[[[[151.3032,-33.5942],[151.3011,-33.5899],[151.3096,-33.5835],[151.3088,-33.576],[151.2848,-33.5722],[151.2812,-33.58],[151.2723,-33.583],[151.273,-33.589],[151.2685,-33.5861],[151.2608,-33.59],[151.2495,-33.5886],[151.2508,-33.5937],[151.2587,-33.5933],[151.2626,-33.5977],[151.2519,-33.5981],[151.2567,-33.6054],[151.2467,-33.6025],[151.2465,-33.5966],[151.2435,-33.5944],[151.2424,-33.5998],[151.2368,-33.6026],[151.2316,-33.6036],[151.2272,-33.5986],[151.2232,-33.6038],[151.2199,-33.5994],[151.2184,-33.6018],[151.226,-33.6075],[151.2237,-33.6088],[151.2249,-33.6144],[151.2289,-33.6182],[151.2236,-33.617],[151.2185,-33.6091],[151.1961,-33.6222],[151.1855,-33.6224],[151.1822,-33.6281],[151.1732,-33.6264],[151.1734,-33.632],[151.1692,-33.637],[151.1722,-33.6403],[151.1654,-33.6387],[151.1668,-33.6509],[151.1608,-33.6511],[151.1641,-33.6562],[151.1615,-33.6605],[151.1687,-33.6674],[151.1672,-33.6732],[151.1718,-33.6775],[151.1657,-33.6859],[151.1738,-33.6918],[151.1746,-33.6968],[151.1885,-33.6986],[151.1914,-33.7027],[151.1877,-33.7206],[151.1917,-33.7283],[151.1826,-33.7324],[151.1803,-33.7406],[151.1884,-33.7436],[151.1939,-33.7502],[151.1958,-33.754],[151.191,-33.757],[151.1984,-33.7624],[151.2023,-33.7734],[151.2121,-33.7765],[151.2144,-33.7822],[151.2248,-33.7838],[151.2294,-33.7825],[151.2308,-33.7727],[151.2322,-33.7828],[151.2366,-33.7892],[151.2349,-33.7941],[151.2389,-33.7984],[151.2351,-33.8034],[151.242,-33.8041],[151.2505,-33.8003],[151.2499,-33.8031],[151.2528,-33.8029],[151.2512,-33.8073],[151.2597,-33.8123],[151.2612,-33.818],[151.2751,-33.81],[151.2661,-33.7982],[151.2735,-33.8011],[151.2856,-33.8003],[151.2826,-33.8092],[151.2859,-33.8064],[151.2872,-33.8094],[151.2911,-33.8087],[151.2835,-33.8156],[151.2873,-33.8207],[151.3,-33.8239],[151.3074,-33.8071],[151.3036,-33.8064],[151.2986,-33.7994],[151.2902,-33.7991],[151.2879,-33.7919],[151.2913,-33.7858],[151.2901,-33.7822],[151.296,-33.7818],[151.2932,-33.7732],[151.2985,-33.7676],[151.3025,-33.7682],[151.2974,-33.7536],[151.3032,-33.7468],[151.2967,-33.751],[151.2914,-33.7467],[151.3042,-33.7465],[151.3177,-33.742],[151.3069,-33.7381],[151.3002,-33.727],[151.3007,-33.7163],[151.3079,-33.7035],[151.3,-33.705],[151.2932,-33.7214],[151.2826,-33.7135],[151.2747,-33.7237],[151.2697,-33.7147],[151.2812,-33.7087],[151.2919,-33.7113],[151.2934,-33.7146],[151.2968,-33.7114],[151.2977,-33.7036],[151.3102,-33.7038],[151.3107,-33.6979],[151.3153,-33.6964],[151.3088,-33.6919],[151.3106,-33.6844],[151.3175,-33.6787],[151.3163,-33.6758],[151.3204,-33.675],[151.3187,-33.6686],[151.3261,-33.6624],[151.3236,-33.6533],[151.3297,-33.6438],[151.3343,-33.6439],[151.3319,-33.6365],[151.3401,-33.6334],[151.3403,-33.6261],[151.343,-33.6245],[151.3391,-33.6173],[151.3336,-33.6163],[151.3318,-33.6128],[151.3361,-33.6046],[151.3253,-33.597],[151.3287,-33.5841],[151.3353,-33.5823],[151.3294,-33.5782],[151.3235,-33.579],[151.3258,-33.5841],[151.3159,-33.6022],[151.3257,-33.6093],[151.3268,-33.618],[151.3321,-33.6234],[151.3212,-33.6211],[151.3161,-33.6142],[151.3149,-33.6311],[151.311,-33.6349],[151.3047,-33.6353],[151.3094,-33.6392],[151.3052,-33.6439],[151.3069,-33.6477],[151.3023,-33.6483],[151.3014,-33.653],[151.304,-33.6521],[151.3042,-33.6578],[151.3084,-33.6555],[151.3067,-33.6594],[151.3122,-33.6625],[151.3096,-33.6634],[151.3121,-33.6667],[151.3067,-33.6625],[151.301,-33.6673],[151.3046,-33.6605],[151.2892,-33.6534],[151.2906,-33.6506],[151.287,-33.65],[151.2848,-33.6442],[151.2791,-33.6457],[151.2777,-33.6497],[151.2804,-33.653],[151.2767,-33.6518],[151.2722,-33.659],[151.2732,-33.6565],[151.2698,-33.6557],[151.2738,-33.6554],[151.2746,-33.6451],[151.2811,-33.6419],[151.2768,-33.6381],[151.2827,-33.6366],[151.2778,-33.637],[151.2704,-33.6315],[151.2784,-33.6334],[151.2905,-33.6285],[151.2829,-33.6219],[151.3026,-33.6209],[151.3003,-33.6152],[151.3044,-33.6032],[151.2925,-33.6053],[151.3032,-33.5942]]],[[[151.2865,-33.6385],[151.2915,-33.6445],[151.2957,-33.6417],[151.2939,-33.6364],[151.2865,-33.6385]]],[[[151.3289,-33.6608],[151.3304,-33.6609],[151.3276,-33.6599],[151.3289,-33.6608]]]]}},{"type":"Feature","properties":{"lga_code":11570},"geometry":{"type":"Polygon","coordinates":[[[151.0394,-33.8877],[151.0301,-33.8878],[150.9905,-33.8641],[150.9733,-33.8894],[150.9671,-33.8901],[150.9684,-33.8965],[150.9793,-33.9057],[150.9774,-33.9092],[150.9731,-33.9076],[150.9739,-33.9185],[150.979,-33.9292],[150.9687,-33.9309],[150.9662,-33.9436],[150.9738,-33.9521],[150.9828,-33.9557],[150.9812,-33.9649],[150.9889,-33.9659],[150.9974,-33.974],[150.9941,-33.979],[150.9971,-33.9823],[151.0042,-33.9794],[151.0059,-33.9825],[151.0157,-33.982],[151.0219,-33.9765],[151.0179,-33.9745],[151.0236,-33.9721],[151.0226,-33.9641],[151.0256,-33.9683],[151.0245,-33.9772],[151.0412,-33.9732],[151.0446,-33.9693],[151.0402,-33.9626],[151.0419,-33.9474],[151.0591,-33.9503],[151.0788,-33.9471],[151.0774,-33.9442],[151.0856,-33.9404],[151.1158,-33.9368],[151.1251,-33.9307],[151.1328,-33.9318],[151.1399,-33.9274],[151.1551,-33.9259],[151.1478,-33.9212],[151.1371,-33.9213],[151.14,-33.9163],[151.135,-33.9132],[151.1344,-33.9057],[151.1222,-33.9063],[151.1251,-33.8957],[151.1125,-33.8943],[151.0996,-33.8975],[151.0974,-33.9037],[151.0877,-33.9001],[151.0755,-33.9096],[151.0643,-33.9078],[151.0686,-33.9056],[151.0641,-33.9049],[151.0682,-33.8858],[151.0589,-33.8904],[151.0547,-33.8866],[151.0586,-33.8843],[151.0394,-33.8877]]]}},{"type":"Feature","properties":{"lga_code":14170},"geometry":{"type":"MultiPolygon","coordinates":[[[[151.1748,-33.8727],[151.1736,-33.871],[151.1854,-33.8682],[151.1875,-33.8637],[151.1796,-33.8666],[151.1817,-33.8638],[151.1924,-33.8606],[151.1908,-33.8588],[151.1965,-33.8597],[151.1937,-33.8543],[151.1888,-33.8567],[151.1845,-33.8536],[151.1905,-33.8524],[151.1824,-33.8492],[151.1855,-33.846],[151.1531,-33.8663],[151.1509,-33.8723],[151.1448,-33.8697],[151.1276,-33.8743],[151.1194,-33.871],[151.1182,-33.8767],[151.1207,-33.877],[151.1126,-33.8866],[151.1123,-33.8956],[151.1251,-33.8957],[151.1222,-33.9063],[151.1344,-33.9057],[151.135,-33.9132],[151.14,-33.9163],[151.1371,-33.9213],[151.1536,-33.9231],[151.1562,-33.9319],[151.1621,-33.9337],[151.1719,-33.9292],[151.1793,-33.9202],[151.1767,-33.9178],[151.1813,-33.9159],[151.1816,-33.907],[151.1778,-33.8991],[151.1812,-33.8957],[151.1753,-33.883],[151.1748,-33.8727]]],[[[151.1741,-33.8459],[151.1689,-33.8485],[151.1745,-33.849],[151.1741,-33.8459]]]]}},{"type":"Feature","properties":{"lga_code":16260},"geometry":{"type":"Polygon","coordinates":[[[151.0504,-33.7587],[151.0349,-33.7609],[151.0297,-33.7646],[151.0188,-33.7629],[150.9717,-33.7744],[150.9589,-33.7683],[150.9653,-33.7794],[150.9565,-33.78],[150.9518,-33.7766],[150.9476,-33.7804],[150.9572,-33.8021],[150.9909,-33.8097],[150.9936,-33.8185],[150.9897,-33.819],[150.9879,-33.8248],[151.0048,-33.8276],[151.0192,-33.8373],[151.0301,-33.8352],[151.0692,-33.8583],[151.0814,-33.85],[151.078,-33.8465],[151.0809,-33.844],[151.0804,-33.835],[151.0753,-33.8327],[151.0841,-33.8222],[151.0735,-33.8204],[151.0649,-33.8249],[151.0511,-33.8242],[151.0645,-33.824],[151.0734,-33.8186],[151.0702,-33.8062],[151.0661,-33.8028],[151.0657,-33.7909],[151.0766,-33.7874],[151.0824,-33.7888],[151.0937,-33.7787],[151.0972,-33.7654],[151.0711,-33.7619],[151.0616,-33.7572],[151.0504,-33.7587]]]}},{"type":"Feature","properties":{"lga_code":12930},"geometry":{"type":"Polygon","coordinates":[[[151.0965,-33.991],[151.0991,-33.9935],[151.1039,-33.9895],[151.1026,-34.0009],[151.1149,-33.9967],[151.1137,-34.0033],[151.1183,-33.9905],[151.1307,-33.9839],[151.1215,-34.0005],[151.1282,-34.006],[151.1262,-34.0017],[151.1365,-33.9831],[151.1377,-33.9595],[151.1348,-33.9562],[151.1306,-33.9661],[151.1189,-33.9694],[151.102,-33.9497],[151.1008,-33.9393],[151.0856,-33.9404],[151.0774,-33.9442],[151.0788,-33.9471],[151.0601,-33.9501],[151.0446,-33.9478],[151.0421,-33.9628],[151.0465,-33.9661],[151.0465,-33.9705],[151.0373,-33.9785],[151.0397,-33.9835],[151.0335,-33.9846],[151.0372,-33.9866],[151.034,-33.9871],[151.0364,-33.9908],[151.0529,-33.991],[151.0552,-33.9889],[151.0494,-33.9802],[151.0537,-33.9828],[151.0618,-33.9752],[151.0643,-33.9765],[151.0597,-33.9775],[151.0545,-33.9851],[151.0653,-33.9828],[151.0641,-33.9873],[151.0668,-33.9882],[151.0711,-33.9836],[151.0748,-33.984],[151.0696,-33.99],[151.0717,-33.9943],[151.0854,-33.9927],[151.0821,-33.9894],[151.0885,-33.9853],[151.0881,-33.9826],[151.0944,-33.9847],[151.0887,-33.9867],[151.0871,-33.9913],[151.0965,-33.991]]]}}]}